IRIDIUM 155             
1 43573U 18061E   20162.40275406  .00000079  00000-0  21218-4 0  9991
2 43573  86.3978 255.1293 0002126  82.0256 278.1181 14.34215803 98350
IRIDIUM 154             
1 43574U 18061F   20162.24420771  .00000075  00000-0  19870-4 0  9998
2 43574  86.3989 255.2257 0002554  98.3391 261.8094 14.34216897 98377
IRIDIUM 163             
1 43575U 18061G   20162.50425130  .00000081  00000-0  21945-4 0  9995
2 43575  86.3987 255.0992 0002056 110.6763 249.4653 14.34218205 98387
IRIDIUM 156             
1 43576U 18061H   20162.33933622  .00000084  00000-0  23011-4 0  9996
2 43576  86.3987 255.1728 0001899  95.6641 264.4771 14.34218210 98358
IRIDIUM 164             
1 43577U 18061J   20162.52961460  .00000076  00000-0  20024-4 0  9991
2 43577  86.3988 255.1002 0002436 100.1867 259.9603 14.34216224 98429
IRIDIUM 159             
1 43578U 18061K   20162.21882604  .00000075  00000-0  19622-4 0  9991
2 43578  86.3986 255.2129 0002429  97.7706 262.3765 14.34216864 98342
IRIDIUM 180             
1 43922U 19002A   20161.79971179  .00000060  00000-0  14296-4 0  9994
2 43922  86.3996 192.2888 0003063 110.8032 249.3492 14.34215371 73899
IRIDIUM 176             
1 43923U 19002B   20162.55912840  .00000104  00000-0  12641-4 0  9991
2 43923  86.6131 191.9969 0002581  95.4888 264.6624 14.72247585 75917
IRIDIUM 168             
1 43924U 19002C   20162.07243470  .00000062  00000-0  15152-4 0  9998
2 43924  86.3997 192.1899 0002608  95.5566 264.5927 14.34219010 73917
IRIDIUM 173             
1 43925U 19002D   20162.12953380  .00000063  00000-0  15401-4 0  9991
2 43925  86.3994 192.1444 0002467  95.3907 264.7570 14.34218054 73914
IRIDIUM 169             
1 43926U 19002E   20162.15079925  .00000071  00000-0  16648-4 0  9992
2 43926  86.4262 223.6812 0006101  37.9912 322.1716 14.38605522 74219
IRIDIUM 172             
1 43927U 19002F   20162.54180778  .00000068  00000-0  17157-4 0  9997
2 43927  86.3994 191.9734 0002546  97.3422 262.8063 14.34217955 73978
IRIDIUM 175             
1 43928U 19002G   20162.21310992  .00000128  00000-0  16367-4 0  9994
2 43928  86.6115 192.0347 0001743  81.9046 278.2368 14.72247838 75851
IRIDIUM 171             
1 43929U 19002H   20162.52276660  .00000060  00000-0  14528-4 0  9994
2 43929  86.4004 192.0433 0002591  94.8471 265.3021 14.34217183 73961
IRIDIUM 170             
1 43930U 19002J   20162.15749336  .00000128  00000-0  16456-4 0  9997
2 43930  86.6131 192.1716 0002306  97.1536 262.9944 14.72248729 75863
IRIDIUM 167             
1 43931U 19002K   20162.51643043  .00000061  00000-0  14799-4 0  9990
2 43931  86.3995 191.9868 0003050 106.5094 253.6437 14.34216067 73966
